OBJECT_NAME,OBJECT_ID,EPOCH,MEAN_MOTION,ECCENTRICITY,INCLINATION,RA_OF_ASC_NODE,ARG_OF_PERICENTER,MEAN_ANOMALY,EPHEMERIS_TYPE,CLASSIFICATION_TYPE,NORAD_CAT_ID,ELEMENT_SET_NO,REV_AT_EPOCH,BSTAR,MEAN_MOTION_DOT,MEAN_MOTION_DDOT
STARLINK-5327,2023-010Y,2026-06-11T04:56:46.165632,14.98330501,.00037307,69.9989,148.8016,265.2641,94.8092,0,U,55291,999,18727,.20127977E-4,.147E-5,0
STARLINK-5325,2023-010Z,2026-06-11T05:50:50.282592,14.98338503,.00035092,69.9988,148.5307,272.6301,87.4457,0,U,55292,999,18728,.70810248E-4,.752E-5,0
STARLINK-5287,2023-010AA,2026-06-11T05:56:50.388288,14.98329214,.00036924,69.9988,148.5462,266.2187,93.8550,0,U,55293,999,18728,-.5004893E-5,-.153E-5,0
STARLINK-5286,2023-010AB,2026-06-11T04:27:02.022912,14.98332036,.00037443,69.9986,168.5949,267.5330,92.5401,0,U,55294,999,18678,.17680728E-4,.118E-5,0
STARLINK-5293,2023-010AC,2026-06-11T07:03:16.681248,14.98325982,.00038965,69.9994,168.5769,267.8671,92.2042,0,U,55295,999,18680,-.99932488E-4,-.1285E-4,0
STARLINK-5285,2023-010AD,2026-06-11T05:32:47.840064,14.98328271,.00036701,69.9991,148.4869,265.3456,94.7284,0,U,55296,999,18816,.786841E-5,.1E-7,0
STARLINK-5284,2023-010AE,2026-06-11T05:44:49.084800,14.98329908,.00035332,69.9989,148.5168,267.9028,92.1726,0,U,55297,999,18728,.181234E-4,.123E-5,0
STARLINK-5270,2023-010AG,2026-06-11T05:26:48.753888,14.98330039,.00037962,69.9989,148.4742,270.6212,89.4512,0,U,55299,999,18816,.4623969E-4,.459E-5,0
STARLINK-5308,2023-010AH,2026-06-11T05:20:46.646304,14.98333579,.00030951,69.9995,148.4634,260.8095,99.2714,0,U,55300,999,18728,-.87292928E-4,-.1135E-4,0
STARLINK-5321,2023-010AK,2026-06-11T05:38:49.810272,14.98323414,.00034821,69.9988,148.4996,271.7896,88.2865,0,U,55302,999,18728,-.15198559E-4,-.274E-5,0
STARLINK-5322,2023-010AL,2026-06-11T07:21:16.834176,14.98341571,.00037004,69.9987,168.2156,268.5050,91.5686,0,U,55303,999,18680,.71054136E-4,.755E-5,0
STARLINK-5318,2023-010AM,2026-06-11T05:14:47.478912,14.98316429,.00040811,69.9989,148.4428,261.4734,98.5963,0,U,55304,999,18728,.24670876E-3,.2851E-4,0
STARLINK-5316,2023-010AN,2026-06-11T05:08:47.476896,14.98330726,.00036916,69.9989,148.8337,265.9335,94.1403,0,U,55305,999,18728,.28450221E-4,.246E-5,0
STARLINK-5295,2023-010AP,2026-06-11T04:26:23.818560,14.98332920,.00030681,69.9992,128.8550,268.7549,91.3258,0,U,55306,999,18777,-.14070407E-4,-.261E-5,0
STARLINK-5288,2023-010AQ,2026-06-11T04:32:24.371808,14.98331213,.00036259,69.9995,128.8706,263.0741,97.0006,0,U,55307,999,18777,.22586042E-4,.176E-5,0
STARLINK-5315,2023-010AS,2026-06-11T04:56:26.164032,14.98319955,.00034048,69.9989,128.5274,269.0160,91.0609,0,U,55309,999,18778,.75816535E-4,.811E-5,0
STARLINK-5309,2023-010AT,2026-06-11T05:50:31.221888,14.98354544,.00033357,69.9986,128.6561,283.2122,76.8665,0,U,55310,999,18778,-.21528194E-3,-.2663E-4,0
STARLINK-5312,2023-010AU,2026-06-11T04:20:23.155584,14.98332017,.00028845,69.9993,128.8396,270.2384,89.8444,0,U,55311,999,18864,.49903388E-4,.503E-5,0
STARLINK-5296,2023-010AV,2026-06-11T06:00:02.000160,14.98317647,.00031917,69.9999,128.3765,272.5001,258.3516,0,U,55312,999,576,.22112211E-2,.26382E-3,0
STARLINK-5313,2023-010AW,2026-06-11T05:38:29.234112,14.98328714,.00034542,69.9991,128.6273,265.6277,94.4488,0,U,55313,999,18865,-.1635188E-5,-.113E-5,0
STARLINK-5305,2023-010AX,2026-06-11T05:44:29.697504,14.98334510,.00032296,69.9989,128.6393,266.4712,93.6078,0,U,55314,999,18865,-.5111398E-4,-.703E-5,0
STARLINK-4623,2023-010AY,2026-06-11T06:02:50.919072,14.98331277,.00040161,69.9988,148.5606,263.6340,96.4362,0,U,55315,999,18727,.33990834E-4,.312E-5,0
STARLINK-5257,2023-010AZ,2026-06-11T05:02:25.215648,14.98330622,.00036872,69.9990,128.5557,265.6605,94.4132,0,U,55316,999,18865,.3246479E-5,-.54E-6,0
STARLINK-5265,2023-010BA,2026-06-11T05:32:28.767264,14.98328899,.00032317,69.9992,128.6401,267.4866,92.5923,0,U,55317,999,18865,-.4346938E-5,-.145E-5,0
STARLINK-5180,2023-010BB,2026-06-11T05:26:27.874464,14.98330352,.00031993,69.9990,128.5978,269.7166,90.3627,0,U,55318,999,18865,.22635104E-4,.177E-5,0
STARLINK-5196,2023-010BC,2026-06-11T05:20:27.176928,14.98329992,.00034539,69.9990,128.5838,267.8701,92.2063,0,U,55319,999,18865,.15742159E-4,.95E-6,0
STARLINK-5492,2023-013A,2026-06-11T04:48:02.885760,15.27573208,.00016545,43.0048,135.3989,270.9010,89.1652,0,U,55331,999,18705,-.6772641E-5,-.449E-5,0
STARLINK-5491,2023-013B,2026-06-11T03:40:30.974592,15.27577595,.00016917,43.0034,121.1746,258.1960,101.8702,0,U,55332,999,18613,.19146663E-4,.265E-5,0
STARLINK-5493,2023-013C,2026-06-10T05:26:48.041088,15.27579902,.0001283,43.0027,140.9939,264.7598,95.3108,0,U,55333,999,18582,.38791E-4,.805E-5,0
STARLINK-5652,2023-013D,2026-06-10T05:21:13.551264,15.27576936,.0001434,43.0023,140.8649,265.7638,94.3050,0,U,55334,999,18582,.34031E-4,.674E-5,0
