1 55291U 23010Y 26162.20608988 .00000147 00000+0 20128-4 0 9994 
2 55291 69.9989 148.8016 0003730 265.2641 94.8092 14.98330501187272 
1 55292U 23010Z 26162.24363753 .00000752 00000+0 70810-4 0 9992 
2 55292 69.9988 148.5307 0003509 272.6301 87.4457 14.98338503187285 
1 55293U 23010AA 26162.24780542 -.00000153 00000+0 -50049-5 0 9992 
2 55293 69.9988 148.5462 0003692 266.2187 93.8550 14.98329214187286 
1 55294U 23010AB 26162.18544008 .00000118 00000+0 17681-4 0 9994 
2 55294 69.9986 168.5949 0003744 267.5330 92.5401 14.98332036186780 
1 55295U 23010AC 26162.29394307 -.00001285 00000+0 -99932-4 0 9999 
2 55295 69.9994 168.5769 0003896 267.8671 92.2042 14.98325982186802 
1 55296U 23010AD 26162.23110926 .00000001 00000+0 78684-5 0 9992 
2 55296 69.9991 148.4869 0003670 265.3456 94.7284 14.98328271188162 
1 55297U 23010AE 26162.23945700 .00000123 00000+0 18123-4 0 9995 
2 55297 69.9989 148.5168 0003533 267.9028 92.1726 14.98329908187287 
1 55299U 23010AG 26162.22695317 .00000459 00000+0 46240-4 0 9995 
2 55299 69.9989 148.4742 0003796 270.6212 89.4512 14.98330039188160 
1 55300U 23010AH 26162.22276211 -.00001135 00000+0 -87293-4 0 9993 
2 55300 69.9995 148.4634 0003095 260.8095 99.2714 14.98333579187289 
1 55302U 23010AK 26162.23529873 -.00000274 00000+0 -15199-4 0 9990 
2 55302 69.9988 148.4996 0003482 271.7896 88.2865 14.98323414187286 
1 55303U 23010AL 26162.30644484 .00000755 00000+0 71054-4 0 9999 
2 55303 69.9987 168.2156 0003700 268.5050 91.5686 14.98341571186802 
1 55304U 23010AM 26162.21860508 .00002851 00000+0 24671-3 0 9998 
2 55304 69.9989 148.4428 0004081 261.4734 98.5963 14.98316429187283 
1 55305U 23010AN 26162.21443839 .00000246 00000+0 28450-4 0 9999 
2 55305 69.9989 148.8337 0003691 265.9335 94.1403 14.98330726187286 
1 55306U 23010AP 26162.18499790 -.00000261 00000+0 -14070-4 0 9995 
2 55306 69.9992 128.8550 0003068 268.7549 91.3258 14.98332920187771 
1 55307U 23010AQ 26162.18917097 .00000176 00000+0 22586-4 0 9995 
2 55307 69.9995 128.8706 0003625 263.0741 97.0006 14.98331213187777 
1 55309U 23010AS 26162.20585838 .00000811 00000+0 75817-4 0 9995 
2 55309 69.9989 128.5274 0003404 269.0160 91.0609 14.98319955187788 
1 55310U 23010AT 26162.24341692 -.00002663 00000+0 -21528-3 0 9997 
2 55310 69.9986 128.6561 0003335 283.2122 76.8665 14.98354544187782 
1 55311U 23010AU 26162.18082356 .00000503 00000+0 49903-4 0 9997 
2 55311 69.9993 128.8396 0002884 270.2384 89.8444 14.98332017188649 
1 55312U 23010AV 26162.25002315 .00026382 00000+0 22112-2 0 9997 
2 55312 69.9999 128.3765 0003191 272.5001 258.3516 14.98317647 5760 
1 55313U 23010AW 26162.23506058 -.00000113 00000+0 -16352-5 0 9997 
2 55313 69.9991 128.6273 0003454 265.6277 94.4488 14.98328714188654 
1 55314U 23010AX 26162.23923261 -.00000703 00000+0 -51114-4 0 9996 
2 55314 69.9989 128.6393 0003229 266.4712 93.6078 14.98334510188655 
1 55315U 23010AY 26162.25197823 .00000312 00000+0 33991-4 0 9993 
2 55315 69.9988 148.5606 0004016 263.6340 96.4362 14.98331277187275 
1 55316U 23010AZ 26162.21001407 -.00000054 00000+0 32465-5 0 9992 
2 55316 69.9990 128.5557 0003687 265.6605 94.4132 14.98330622188650 
1 55317U 23010BA 26162.23088851 -.00000145 00000+0 -43469-5 0 9991 
2 55317 69.9992 128.6401 0003231 267.4866 92.5923 14.98328899188656 
1 55318U 23010BB 26162.22671151 .00000177 00000+0 22635-4 0 9996 
2 55318 69.9990 128.5978 0003199 269.7166 90.3627 14.98330352188658 
1 55319U 23010BC 26162.22253677 .00000095 00000+0 15742-4 0 9996 
2 55319 69.9990 128.5838 0003453 267.8701 92.2063 14.98329992188654 
1 55331U 23013A 26162.20003340 -.00000449 00000+0 -67726-5 0 9996 
2 55331 43.0048 135.3989 0001654 270.9010 89.1652 15.27573208187053 
1 55332U 23013B 26162.15313628 .00000265 00000+0 19147-4 0 9991 
2 55332 43.0034 121.1746 0001691 258.1960 101.8702 15.27577595186135 
1 55333U 23013C 26161.22694492 .00000805 00000+0 38791-4 0 9996 
2 55333 43.0027 140.9939 0001283 264.7598 95.3108 15.27579902185824 
1 55334U 23013D 26161.22307351 .00000674 00000+0 34031-4 0 9999 
2 55334 43.0023 140.8649 0001434 265.7638 94.3050 15.27576936185821 
